[{"OBJECT_NAME":"STARLINK-34736","OBJECT_ID":"2025-152E","EPOCH":"2026-03-09T14:05:49.149024","MEAN_MOTION":15.05658271,"ECCENTRICITY":0.0002331,"INCLINATION":97.6015,"RA_OF_ASC_NODE":285.4239,"ARG_OF_PERICENTER":67.6567,"MEAN_ANOMALY":292.4907,"EPHEMERIS_TYPE":0,"CLASSIFICATION_TYPE":"U","NORAD_CAT_ID":64846,"ELEMENT_SET_NO":999,"REV_AT_EPOCH":3540,"BSTAR":0.00032716,"MEAN_MOTION_DOT":4.664e-5,"MEAN_MOTION_DDOT":0},{"OBJECT_NAME":"COSMOS 2251 DEB","OBJECT_ID":"1993-036APY","EPOCH":"2026-02-27T18:53:11.975424","MEAN_MOTION":14.91799606,"ECCENTRICITY":0.00652266,"INCLINATION":74.0385,"RA_OF_ASC_NODE":248.3743,"ARG_OF_PERICENTER":297.547,"MEAN_ANOMALY":61.9095,"EPHEMERIS_TYPE":0,"CLASSIFICATION_TYPE":"U","NORAD_CAT_ID":35703,"ELEMENT_SET_NO":999,"REV_AT_EPOCH":67764,"BSTAR":0.00062223908,"MEAN_MOTION_DOT":6.504e-5,"MEAN_MOTION_DDOT":0}]
